NORAD_CAT_ID,OBJECT_NAME,OBJECT_TYPE,EPOCH,MEAN_MOTION,ECCENTRICITY,INCLINATION,RA_OF_ASC_NODE,ARG_OF_PERICENTER,MEAN_ANOMALY,BSTAR,MEAN_MOTION_DOT,MEAN_MOTION_DDOT,TLE_LINE0,TLE_LINE1,TLE_LINE2,SEMIMAJOR_AXIS,PERIOD,APOGEE,PERIGEE,DECAYED
55405.0,STARLINK-5623,PAYLOAD,2023-02-17 10:32:05,15.69904919,0.0003374,69.9978,42.599,272.8048,87.2761,-2.0898e-05,-2.723e-05,0.0,0 STARLINK-5623,1 55405U 23014Q   23048.43895715 -.00002723  00000-0 -20898-4 0  9995,2 55405  69.9978  42.5990 0003374 272.8048  87.2761 15.69904919  2833,6737.306,91.725,361.444,356.898,0.0
55405.0,STARLINK-5623,PAYLOAD,2023-02-17 13:35:35,15.69913628,0.000333,69.9977,42.2409,275.2565,84.825,-1.7743e-06,-4.26e-06,0.0,0 STARLINK-5623,1 55405U 23014Q   23048.56638796 -.00000426  00000-0 -17743-5 0  9997,2 55405  69.9977  42.2409 0003330 275.2565  84.8250 15.69913628  3796,6737.281,91.725,361.39,356.903,0.0
55405.0,STARLINK-5623,PAYLOAD,2023-02-17 18:10:50,15.69934943,0.0003466,69.9979,41.7038,274.7014,85.3785,4.4871e-05,5.188e-05,0.0,0 STARLINK-5623,1 55405U 23014Q   23048.75752865  .00005188  00000-0  44871-4 0  9991,2 55405  69.9979  41.7038 0003466 274.7014  85.3785 15.69934943  2884,6737.22,91.724,361.42,356.75,0.0
55405.0,STARLINK-5623,PAYLOAD,2023-02-17 21:14:20,15.69929881,0.0003368,69.9982,41.345,274.6166,85.4645,3.8409e-05,4.409e-05,0.0,0 STARLINK-5623,1 55405U 23014Q   23048.88496406  .00004409  00000-0  38409-4 0  9996,2 55405  69.9982  41.3450 0003368 274.6166  85.4645 15.69929881  3848,6737.235,91.724,361.369,356.831,0.0
55405.0,STARLINK-5623,PAYLOAD,2023-02-18 01:49:36,15.69927999,0.0003433,69.9981,40.8076,272.9601,87.1202,3.843e-05,4.411e-05,0.0,0 STARLINK-5623,1 55405U 23014Q   23049.07611510  .00004411  00000-0  38430-4 0  9990,2 55405  69.9981  40.8076 0003433 272.9601  87.1202 15.69927999  2938,6737.24,91.724,361.418,356.792,0.0
55405.0,STARLINK-5623,PAYLOAD,2023-02-18 11:00:07,15.69918759,0.0003322,69.9982,39.7323,269.8548,90.2267,-1.0107e-05,-1.428e-05,0.0,0 STARLINK-5623,1 55405U 23014Q   23049.45841739 -.00001428  00000-0 -10107-4 0  9998,2 55405  69.9982  39.7323 0003322 269.8548  90.2267 15.69918759  2999,6737.266,91.724,361.37,356.893,0.0
55405.0,STARLINK-5623,PAYLOAD,2023-02-18 14:03:37,15.69921228,0.0003332,69.9983,39.3741,269.4686,90.6128,2.9445e-06,1.41e-06,0.0,0 STARLINK-5623,1 55405U 23014Q   23049.58585071  .00000141  00000-0  29445-5 0  9991,2 55405  69.9983  39.3741 0003332 269.4686  90.6128 15.69921228  3952,6737.259,91.724,361.369,356.88,0.0
55405.0,STARLINK-5623,PAYLOAD,2023-02-19 02:17:38,15.69946957,0.0003433,69.9983,37.9404,264.0298,96.0506,0.00027854,0.00033445,0.0,0 STARLINK-5623,1 55405U 23014Q   23050.09558153  .00033445  00000-0  27854-3 0  9993,2 55405  69.9983  37.9404 0003433 264.0298  96.0506 15.69946957  3095,6737.186,91.723,361.364,356.738,0.0
55405.0,STARLINK-5623,PAYLOAD,2023-02-19 09:56:23,15.69928656,0.0003388,69.9983,37.0448,262.1785,97.9026,8.0269e-05,9.452e-05,0.0,0 STARLINK-5623,1 55405U 23014Q   23050.41416643  .00009452  00000-0  80269-4 0  9997,2 55405  69.9983  37.0448 0003388 262.1785  97.9026 15.69928656  3142,6737.238,91.724,361.386,356.821,0.0
55405.0,STARLINK-5623,PAYLOAD,2023-02-19 14:31:39,15.69929711,0.0003404,69.9984,36.5072,261.8884,98.1925,8.5585e-05,0.00010093,0.0,0 STARLINK-5623,1 55405U 23014Q   23050.60531646  .00010093  00000-0  85585-4 0  9998,2 55405  69.9984  36.5072 0003404 261.8884  98.1925 15.69929711  4117,6737.235,91.724,361.393,356.807,0.0
55405.0,STARLINK-5623,PAYLOAD,2023-02-20 10:24:26,15.6992659,0.000337,69.9986,34.1777,262.9215,97.1597,8.1294e-05,9.574e-05,0.0,0 STARLINK-5623,1 55405U 23014Q   23051.43363521  .00009574  00000-0  81294-4 0  9990,2 55405  69.9986  34.1777 0003370 262.9215  97.1597 15.69926590  3303,6737.244,91.724,361.379,356.839,0.0
55405.0,STARLINK-5623,PAYLOAD,2023-02-20 13:27:56,15.69942076,0.000335,69.9986,33.8194,263.8283,96.2531,0.0002236,0.00026779,0.0,0 STARLINK-5623,1 55405U 23014Q   23051.56106799  .00026779  00000-0  22360-3 0  9990,2 55405  69.9986  33.8194 0003350 263.8283  96.2531 15.69942076  4266,6737.2,91.723,361.322,356.808,0.0
55405.0,STARLINK-5623,PAYLOAD,2023-02-21 09:20:41,15.69964895,0.0003431,69.9988,31.4903,264.7264,95.354,0.00016985,0.00020294,0.0,0 STARLINK-5623,1 55405U 23014Q   23052.38937230  .00020294  00000-0  16985-3 0  9995,2 55405  69.9988  31.4903 0003431 264.7264  95.3540 15.69964895  3452,6737.134,91.722,361.311,356.688,0.0
55405.0,STARLINK-5623,PAYLOAD,2023-02-21 13:55:56,15.69955106,0.0003383,69.9989,30.9528,268.1861,91.8948,9.0139e-05,0.00010653,0.0,0 STARLINK-5623,1 55405U 23014Q   23052.58052030  .00010653  00000-0  90139-4 0  9995,2 55405  69.9989  30.9528 0003383 268.1861  91.8948 15.69955106  4423,6737.162,91.722,361.307,356.748,0.0
55405.0,STARLINK-5623,PAYLOAD,2023-02-21 18:31:11,15.69967854,0.0003587,69.999,30.4146,267.9223,92.1562,8.7682e-05,0.00010363,0.0,0 STARLINK-5623,1 55405U 23014Q   23052.77166337  .00010363  00000-0  87682-4 0  9999,2 55405  69.9990  30.4146 0003587 267.9223  92.1562 15.69967854  3519,6737.126,91.722,361.408,356.574,0.0
55405.0,STARLINK-5623,PAYLOAD,2023-02-21 21:34:42,15.69926245,0.0003485,69.9991,30.0563,262.966,97.1139,-0.00015621,-0.00018956,0.0,0 STARLINK-5623,1 55405U 23014Q   23052.89910217 -.00018956  00000-0 -15621-3 0  9997,2 55405  69.9991  30.0563 0003485 262.9660  97.1139 15.69926245  4476,6737.245,91.724,361.458,356.762,0.0
55405.0,STARLINK-5623,PAYLOAD,2023-02-22 02:09:57,15.69925952,0.0003597,69.9991,29.5191,262.5747,97.504,-2.7222e-06,-5.4e-06,0.0,0 STARLINK-5623,1 55405U 23014Q   23053.09025235 -.00000540  00000-0 -27222-5 0  9999,2 55405  69.9991  29.5191 0003597 262.5747  97.5040 15.69925952  3560,6737.246,91.724,361.534,356.687,0.0
55405.0,STARLINK-5623,PAYLOAD,2023-02-22 09:48:44,15.69880241,0.0003097,69.9991,28.6233,270.2682,89.8159,0.00044093,0.00053042,0.0,0 STARLINK-5623,1 55405U 23014Q   23053.40884806  .00053042  00000-0  44093-3 0  9997,2 55405  69.9991  28.6233 0003097 270.2682  89.8159 15.69880241  3618,6737.377,91.727,361.328,357.155,0.0
55405.0,STARLINK-5623,PAYLOAD,2023-02-22 15:55:45,15.69886017,0.0003367,69.9992,27.9066,268.6951,91.3859,0.00048785,0.00058766,0.0,0 STARLINK-5623,1 55405U 23014Q   23053.66372076  .00058766  00000-0  48785-3 0  9996,2 55405  69.9992  27.9066 0003367 268.6951  91.3859 15.69886017  3651,6737.36,91.726,361.494,356.957,0.0
55405.0,STARLINK-5623,PAYLOAD,2023-02-23 04:09:46,15.69961441,0.0003322,69.9992,26.4738,266.8307,93.2509,0.0005754,0.00069658,0.0,0 STARLINK-5623,1 55405U 23014Q   23054.17345343  .00069658  00000-0  57540-3 0  9991,2 55405  69.9992  26.4738 0003322 266.8307  93.2509 15.69961441  3734,6737.144,91.722,361.247,356.771,0.0
55405.0,STARLINK-5623,PAYLOAD,2023-02-23 07:13:16,15.6997801,0.0003553,69.9993,26.115,263.4134,96.6657,0.00059349,0.00071926,0.0,0 STARLINK-5623,1 55405U 23014Q   23054.30088362  .00071926  00000-0  59349-3 0  9991,2 55405  69.9993  26.1150 0003553 263.4134  96.6657 15.69978010  4694,6737.097,91.721,361.356,356.568,0.0
55405.0,STARLINK-5623,PAYLOAD,2023-02-23 20:59:02,15.69964871,0.0001787,69.9993,24.5028,277.2322,82.867,0.00047824,0.00057775,0.0,0 STARLINK-5623,1 55405U 23014Q   23054.87433591  .00057775  00000-0  47824-3 0  9992,2 55405  69.9993  24.5028 0001787 277.2322  82.8670 15.69964871  3847,6737.135,91.722,360.203,357.796,0.0
55405.0,STARLINK-5623,PAYLOAD,2023-02-24 04:37:48,15.69932254,0.0003409,69.9994,23.6066,270.7685,89.312,0.00063602,0.00076995,0.0,0 STARLINK-5623,1 55405U 23014Q   23055.19292101  .00076995  00000-0  63602-3 0  9995,2 55405  69.9994  23.6066 0003409 270.7685  89.3120 15.69932254  3890,6737.228,91.724,361.39,356.796,0.0
55405.0,STARLINK-5623,PAYLOAD,2023-02-24 07:41:18,15.69938537,0.0003533,69.9993,23.2485,269.7987,90.2804,0.00038956,0.0004692,0.0,0 STARLINK-5623,1 55405U 23014Q   23055.32035368  .00046920  00000-0  38956-3 0  9999,2 55405  69.9993  23.2485 0003533 269.7987  90.2804 15.69938537  3914,6737.21,91.723,361.455,356.695,0.0
55405.0,STARLINK-5623,PAYLOAD,2023-02-24 21:27:05,15.69946964,0.0003437,69.9996,21.6371,263.3861,96.6943,0.00037135,0.0004472,0.0,0 STARLINK-5623,1 55405U 23014Q   23055.89380877  .00044720  00000-0  37135-3 0  9993,2 55405  69.9996  21.6371 0003437 263.3861  96.6943 15.69946964  4948,6737.186,91.723,361.366,356.735,0.0
55405.0,STARLINK-5623,PAYLOAD,2023-02-25 00:30:35,15.69945048,0.0003626,69.9994,21.2774,265.5321,94.546,0.00041155,0.00049611,0.0,0 STARLINK-5623,1 55405U 23014Q   23056.02124182  .00049611  00000-0  41155-3 0  9995,2 55405  69.9994  21.2774 0003626 265.5321  94.5460 15.69945048  4026,6737.191,91.723,361.499,356.613,0.0
55405.0,STARLINK-5623,PAYLOAD,2023-02-25 05:05:50,15.69957969,0.0003553,70.0,20.741,263.4241,96.655,0.00035503,0.00042756,0.0,0 STARLINK-5623,1 55405U 23014Q   23056.21238878  .00042756  00000-0  35503-3 0  9997,2 55405  70.0000  20.7410 0003553 263.4241  96.6550 15.69957969  4999,6737.154,91.722,361.413,356.626,0.0
55405.0,STARLINK-5623,PAYLOAD,2023-02-26 04:02:07,15.69958993,0.000369,69.9987,18.0526,269.3742,90.7031,0.00030023,0.00036097,0.0,0 STARLINK-5623,1 55405U 23014Q   23057.16813697  .00036097  00000-0  30023-3 0  9993,2 55405  69.9987  18.0526 0003690 269.3742  90.7031 15.69958993  4202,6737.151,91.722,361.502,356.53,0.0
55405.0,STARLINK-5623,PAYLOAD,2023-02-26 08:37:22,15.69940994,0.000359,69.9987,17.5159,268.3052,91.7732,7.6501e-05,9.002e-05,0.0,0 STARLINK-5623,1 55405U 23014Q   23057.35928731  .00009002  00000-0  76501-4 0  9998,2 55405  69.9987  17.5159 0003590 268.3052  91.7732 15.69940994  4234,6737.203,91.723,361.486,356.649,0.0
55405.0,STARLINK-5623,PAYLOAD,2023-02-26 22:23:09,15.69915399,0.0003263,70.0016,15.907,256.1719,103.9114,6.5766e-05,7.699e-05,0.0,0 STARLINK-5623,1 55405U 23014Q   23057.93274444  .00007699  00000-0  65766-4 0  9998,2 55405  70.0016  15.9070 0003263 256.1719 103.9114 15.69915399  4327,6737.276,91.725,361.339,356.943,0.0
